NORAD_CAT_ID,OBJECT_NAME,OBJECT_TYPE,EPOCH,MEAN_MOTION,ECCENTRICITY,INCLINATION,RA_OF_ASC_NODE,ARG_OF_PERICENTER,MEAN_ANOMALY,BSTAR,MEAN_MOTION_DOT,MEAN_MOTION_DDOT,TLE_LINE0,TLE_LINE1,TLE_LINE2,SEMIMAJOR_AXIS,PERIOD,APOGEE,PERIGEE,DECAYED
50838.0,STARLINK-3322,PAYLOAD,2022-12-17 12:38:04,15.08829768,0.0002356,53.2193,68.1095,32.0665,328.047,-0.00010106,-1.896e-05,0.0,0 STARLINK-3322,1 50838U 22001AM  22351.52644664 -.00001896  00000-0 -10106-3 0  9996,2 50838  53.2193  68.1095 0002356  32.0665 328.0470 15.08829768 52405,6917.9119999999975,95.438,541.4069999999998,538.1469999999998,0.0
50838.0,STARLINK-3322,PAYLOAD,2022-12-17 15:48:51,15.08832203,0.0002495,53.2182,67.5147,28.9742,331.1388,-8.890100000000001e-05,-1.703e-05,0.0,0 STARLINK-3322,1 50838U 22001AM  22351.65892576 -.00001703  00000-0 -88901-4 0  9993,2 50838  53.2182  67.5147 0002495  28.9742 331.1388 15.08832203 52421,6917.904,95.438,541.495,538.043,0.0
50838.0,STARLINK-3322,PAYLOAD,2022-12-18 04:31:55,15.08839255,0.0002429,53.2171,65.1345,33.3031,326.8113,3.5105e-05,2.7000000000000004e-06,0.0,0 STARLINK-3322,1 50838U 22001AM  22352.18884020  .00000270  00000-0  35105-4 0  9991,2 50838  53.2171  65.1345 0002429  33.3031 326.8113 15.08839255 53704,6917.8830000000025,95.438,541.428,538.067,0.0
50838.0,STARLINK-3322,PAYLOAD,2022-12-18 10:53:28,15.08842768,0.0002475,53.2168,63.9451,36.6362,323.4799,7.864e-05,9.63e-06,0.0,0 STARLINK-3322,1 50838U 22001AM  22352.45379729  .00000963  00000-0  78640-4 0  9996,2 50838  53.2168  63.9451 0002475  36.6362 323.4799 15.08842768 52545,6917.871999999999,95.437,541.4490000000002,538.025,0.0
50838.0,STARLINK-3322,PAYLOAD,2022-12-18 17:15:00,15.08849656,0.0002504,53.2168,62.7554,32.813,327.3018,0.00015691,2.21e-05,0.0,0 STARLINK-3322,1 50838U 22001AM  22352.71875073  .00002210  00000-0  15691-3 0  9991,2 50838  53.2168  62.7554 0002504  32.8130 327.3018 15.08849656 52584,6917.851,95.437,541.448,537.984,0.0
50838.0,STARLINK-3322,PAYLOAD,2022-12-18 22:01:10,15.08812191,0.0002554,53.217,61.8633,40.0507,320.0673,0.0007565,0.00011763,0.0,0 STARLINK-3322,1 50838U 22001AM  22352.91748551  .00011763  00000-0  75650-3 0  9997,2 50838  53.2170  61.8633 0002554  40.0507 320.0673 15.08812191 53817,6917.965,95.439,541.597,538.064,0.0
50838.0,STARLINK-3322,PAYLOAD,2022-12-19 17:05:46,15.08870889,0.0002628999999999,53.2162,58.2947,30.761,329.3535,0.00063762,9.883e-05,0.0,0 STARLINK-3322,1 50838U 22001AM  22353.71234467  .00009883  00000-0  63762-3 0  9993,2 50838  53.2162  58.2947 0002629  30.7610 329.3535 15.08870889 52737,6917.786,95.436,541.47,537.832,0.0
50838.0,STARLINK-3322,PAYLOAD,2022-12-19 21:51:55,15.08882618,0.0002551,53.2161,57.4025,33.1652,326.95,0.00077487,0.0001208,0.0,0 STARLINK-3322,1 50838U 22001AM  22353.91105753  .00012080  00000-0  77487-3 0  9992,2 50838  53.2161  57.4025 0002551  33.1652 326.9500 15.08882618 53965,6917.75,95.435,541.38,537.85,0.0
50838.0,STARLINK-3322,PAYLOAD,2022-12-20 10:34:58,15.08912499,0.00026,53.216,55.0231,32.9764,327.139,0.0011978,0.00018865,0.0,0 STARLINK-3322,1 50838U 22001AM  22354.44095373  .00018865  00000-0  11978-2 0  9996,2 50838  53.2160  55.0231 0002600  32.9764 327.1390 15.08912499 54044,6917.659000000002,95.433,541.322,537.725,0.0
50838.0,STARLINK-3322,PAYLOAD,2022-12-21 10:25:40,15.08942804,0.000277,53.2165,50.5629,35.0433,325.0741,0.00098736,0.00015505,0.0,0 STARLINK-3322,1 50838U 22001AM  22355.43449615  .00015505  00000-0  98736-3 0  9994,2 50838  53.2165  50.5629 0002770  35.0433 325.0741 15.08942804 52997,6917.566,95.431,541.347,537.515,0.0
50838.0,STARLINK-3322,PAYLOAD,2022-12-21 15:11:48,15.08945894,0.0002723999999999,53.2165,49.6702,35.2874,324.8298,0.00094669,0.00014855,0.0,0 STARLINK-3322,1 50838U 22001AM  22355.63320306  .00014855  00000-0  94669-3 0  9999,2 50838  53.2165  49.6702 0002724  35.2874 324.8298 15.08945894 54222,6917.557,95.431,541.306,537.5369999999998,0.0
50838.0,STARLINK-3322,PAYLOAD,2022-12-22 10:16:20,15.0897723,0.0002799,53.2166,46.1019,35.6062,324.5116,0.0010491,0.00016511,0.0,0 STARLINK-3322,1 50838U 22001AM  22356.42801620  .00016511  00000-0  10491-2 0  9991,2 50838  53.2166  46.1019 0002799  35.6062 324.5116 15.08977230 53146,6917.4609999999975,95.429,541.262,537.39,0.0
50838.0,STARLINK-3322,PAYLOAD,2022-12-22 15:02:28,15.08983582,0.0002804,53.2165,45.2095,35.2676,324.8501,0.00093688,0.00014713,0.0,0 STARLINK-3322,1 50838U 22001AM  22356.62671702  .00014713  00000-0  93688-3 0  9991,2 50838  53.2165  45.2095 0002804  35.2676 324.8501 15.08983582 54377,6917.441999999999,95.428,541.246,537.367,0.0
50838.0,STARLINK-3322,PAYLOAD,2022-12-23 03:45:28,15.09011625,0.0002813,53.2166,42.8307,34.8799,325.2378,0.0012361,0.00019533,0.0,0 STARLINK-3322,1 50838U 22001AM  22357.15657932  .00019533  00000-0  12361-2 0  9992,2 50838  53.2166  42.8307 0002813  34.8799 325.2378 15.09011625 54455,6917.356,95.427,541.1669999999998,537.275,0.0
50838.0,STARLINK-3322,PAYLOAD,2022-12-23 10:06:58,15.09023699,0.0002827,53.2165,41.6412,35.4779,324.6401,0.0013097,0.00020723,0.0,0 STARLINK-3322,1 50838U 22001AM  22357.42150793  .00020723  00000-0  13097-2 0  9995,2 50838  53.2165  41.6412 0002827  35.4779 324.6401 15.09023699 53293,6917.319,95.426,541.139,537.2280000000002,0.0
50838.0,STARLINK-3322,PAYLOAD,2022-12-23 19:39:12,15.09038492,0.0002849,53.2163,39.8567,36.5694,323.5492,0.0012661,0.0002003,0.0,0 STARLINK-3322,1 50838U 22001AM  22357.81889766  .00020030  00000-0  12661-2 0  9994,2 50838  53.2163  39.8567 0002849  36.5694 323.5492 15.09038492 53355,6917.274,95.425,541.109,537.168,0.0
50838.0,STARLINK-3322,PAYLOAD,2022-12-24 09:57:33,15.09062124,0.0002898,53.2161,37.18,37.6478,322.4717,0.001199,0.00018963,0.0,0 STARLINK-3322,1 50838U 22001AM  22358.41497371  .00018963  00000-0  11990-2 0  9994,2 50838  53.2161  37.1800 0002898  37.6478 322.4717 15.09062124 54640,6917.2019999999975,95.424,541.071,537.062,0.0
50838.0,STARLINK-3322,PAYLOAD,2022-12-24 19:29:47,15.09074808,0.0002888,53.2161,35.3951,38.2531,321.8666,0.0010741,0.00016958,0.0,0 STARLINK-3322,1 50838U 22001AM  22358.81235301  .00016958  00000-0  10741-2 0  9996,2 50838  53.2161  35.3951 0002888  38.2531 321.8666 15.09074808 53505,6917.163000000001,95.423,541.025,537.03,0.0
50838.0,STARLINK-3322,PAYLOAD,2022-12-25 08:12:44,15.09092442,0.0002897,53.216,33.0155,39.6232,320.4972,0.00093992,0.00014806,0.0,0 STARLINK-3322,1 50838U 22001AM  22359.34218589  .00014806  00000-0  93992-3 0  9994,2 50838  53.2160  33.0155 0002897  39.6232 320.4972 15.09092442 53585,6917.109,95.422,540.9780000000002,536.97,0.0
50838.0,STARLINK-3322,PAYLOAD,2022-12-25 19:20:19,15.09105903,0.000296,53.216,30.9332,40.5922,319.529,0.00084151,0.00013228,0.0,0 STARLINK-3322,1 50838U 22001AM  22359.80578533  .00013228  00000-0  84151-3 0  9997,2 50838  53.2160  30.9332 0002960  40.5922 319.5290 15.09105903 54856,6917.068,95.421,540.98,536.885,0.0
50838.0,STARLINK-3322,PAYLOAD,2022-12-26 01:41:48,15.09114326,0.0002966,53.2159,29.7434,41.1398,318.9817,0.00084884,0.00013349,0.0,0 STARLINK-3322,1 50838U 22001AM  22360.07069727  .00013349  00000-0  84884-3 0  9995,2 50838  53.2159  29.7434 0002966  41.1398 318.9817 15.09114326 53691,6917.042,95.42,540.9590000000002,536.855,0.0
50838.0,STARLINK-3322,PAYLOAD,2022-12-26 19:10:50,15.09145936,0.0003032,53.2159,26.4711,42.9286,317.1942,0.0012931,0.00020526,0.0,0 STARLINK-3322,1 50838U 22001AM  22360.79919678  .00020526  00000-0  12931-2 0  9991,2 50838  53.2159  26.4711 0003032  42.9286 317.1942 15.09145936 55001,6916.945,95.418,540.908,536.7130000000002,0.0
50838.0,STARLINK-3322,PAYLOAD,2022-12-27 07:53:46,15.09166737,0.0003063,53.2157,24.0914,43.9844,316.1392,0.0012678,0.00020129,0.0,0 STARLINK-3322,1 50838U 22001AM  22361.32900505  .00020129  00000-0  12678-2 0  9997,2 50838  53.2157  24.0914 0003063  43.9844 316.1392 15.09166737 53887,6916.882,95.417,540.866,536.628,0.0
50838.0,STARLINK-3322,PAYLOAD,2022-12-27 19:01:18,15.0919172,0.0003101,53.2157,22.0091,45.125,314.9993,0.0015006,0.00023908,0.0,0 STARLINK-3322,1 50838U 22001AM  22361.79258009  .00023908  00000-0  15006-2 0  9999,2 50838  53.2157  22.0091 0003101  45.1250 314.9993 15.09191720 53950,6916.806,95.415,540.815,536.526,0.0
50838.0,STARLINK-3322,PAYLOAD,2022-12-28 01:22:46,15.0920468,0.0003123999999999,53.2157,20.8192,45.6781,314.4467,0.0015067,0.00024015,0.0,0 STARLINK-3322,1 50838U 22001AM  22362.05747694  .00024015  00000-0  15067-2 0  9999,2 50838  53.2157  20.8192 0003124  45.6781 314.4467 15.09204680 55196,6916.766,95.414,540.7919999999998,536.47,0.0
50838.0,STARLINK-3322,PAYLOAD,2022-12-29 01:13:11,15.0924078,0.0003225,53.2163,16.3571,48.4597,311.6671,0.00097576,0.00015447,0.0,0 STARLINK-3322,1 50838U 22001AM  22363.05082284  .00015447  00000-0  97576-3 0  9992,2 50838  53.2163  16.3571 0003225  48.4597 311.6671 15.09240780 55346,6916.656,95.412,540.751,536.29,0.0
50838.0,STARLINK-3322,PAYLOAD,2022-12-29 07:34:37,15.09250518,0.0003273,53.2165,15.1676,48.6261,311.5013,0.0010688,0.00016956,0.0,0 STARLINK-3322,1 50838U 22001AM  22363.31571129  .00016956  00000-0  10688-2 0  9996,2 50838  53.2165  15.1676 0003273  48.6261 311.5013 15.09250518 54184,6916.626,95.412,540.755,536.227,0.0
50838.0,STARLINK-3322,PAYLOAD,2022-12-30 04:14:16,15.09293205,0.0003296,53.2172,11.3004,50.2629,309.8653,0.0015717,0.00025129,0.0,0 STARLINK-3322,1 50838U 22001AM  22364.17658523  .00025129  00000-0  15717-2 0  9995,2 50838  53.2172  11.3004 0003296  50.2629 309.8653 15.09293205 55515,6916.495,95.409,540.64,536.081,0.0
50838.0,STARLINK-3322,PAYLOAD,2022-12-30 07:24:59,15.0929899,0.0003336,53.2175,10.7062,49.2086,310.9195,0.0015827999999999,0.00025313,0.0,0 STARLINK-3322,1 50838U 22001AM  22364.30902556  .00025313  00000-0  15828-2 0  9996,2 50838  53.2175  10.7062 0003336  49.2086 310.9195 15.09298990 54334,6916.478,95.409,540.65,536.035,0.0
